STARLINK-35667          
1 66400U 25257W   25329.08336806 -.01946199  00000+0 -19478-1 0  9992
2 66400  53.1598 348.4893 0001412  92.8578 108.3887 15.68011087  3651
STARLINK-35668          
1 66401U 25257X   25329.08336806 -.01944056  00000+0 -19451-1 0  9994
2 66401  53.1597 348.4850 0001584  91.9029 111.2568 15.68011433  3659
STARLINK-35644          
1 66402U 25257Y   25329.08336806 -.01950609  00000+0 -19523-1 0  9996
2 66402  53.1599 348.4934 0001470  92.7262 106.5987 15.68016147  3656
STARLINK-35602          
1 66403U 25257Z   25329.08336806 -.01923728  00000+0 -19241-1 0  9996
2 66403  53.1597 348.4815 0001285  89.3032 115.7905 15.67990708  3659
STARLINK-35691          
1 66404U 25257AA  25329.08336806 -.01950579  00000+0 -19522-1 0  9993
2 66404  53.1600 348.4771 0001447  94.3062 112.6844 15.68017198  3657
STARLINK-35683          
1 66405U 25257AB  25329.08336806 -.01949040  00000+0 -19506-1 0  9997
2 66405  53.1595 348.4724 0001387  94.5406 114.3682 15.68015639  3507
STARLINK-34840          
1 66406U 25257AC  25328.83337963 -.01964519  00000+0 -18839-1 0  9991
2 66406  53.1599 349.6908 0001353  88.5438 153.7059 15.69070096  3560
STARLINK-35686          
1 66407U 25257AD  25329.08336806 -.01948593  00000+0 -19503-1 0  9998
2 66407  53.1597 348.4686 0001325  91.6211 119.2059 15.68014363  3653
STARLINK-35679          
1 66408U 25257AE  25329.08336806 -.01949883  00000+0 -19516-1 0  9996
2 66408  53.1594 348.4660 0001446  94.8345 117.9096 15.68014962  3651
CHUTIAN-2 A             
1 66409U 25256A   25329.19721326  .00000071  00000+0  29610-4 0  9996
2 66409  98.2784  34.2677 0012815 232.6984 127.3043 14.49903093  2335
CHUTIAN-2 B             
1 66410U 25256B   25329.19172971  .00000786  00000+0  20973-3 0  9999
2 66410  98.2813  34.2800 0012867 236.8391 123.1570 14.50989658  2335
ZK-1A R/B               
1 66411U 25256C   25324.72402141  .00011214  00000+0  48988-3 0  9993
2 66411  98.3243  30.9055 0232353 318.4537  39.9225 15.01236100  1741
